COSMOS 1408 DEB         
1 50032U 82092RU  26193.37607750  .00002704  00000+0  50874-4 0  9997
2 50032  82.5609 201.1842 0015982 157.1611 203.0354 15.47888093258754
COSMOS 1408 DEB         
1 50058U 82092SW  26193.46784961  .00055622  00000+0  23851-3 0  9996
2 50058  82.6050 204.5723 0007449  42.0648 318.1193 15.84845777261339
COSMOS 1408 DEB         
1 50621U 82092ALR 26193.05209574  .00027979  00000+0  21871-3 0  9993
2 50621  82.5630 211.7993 0021498  88.9833 271.3893 15.71140412255523
